[{"OBJECT_NAME":"EYESAT A (AO-27)","OBJECT_ID":"1993-061C","EPOCH":"2026-03-09T16:58:07.157856","MEAN_MOTION":14.30913089,"ECCENTRICITY":0.00089503,"INCLINATION":98.6982,"RA_OF_ASC_NODE":136.1171,"ARG_OF_PERICENTER":38.8989,"MEAN_ANOMALY":321.2837,"EPHEMERIS_TYPE":0,"CLASSIFICATION_TYPE":"U","NORAD_CAT_ID":22825,"ELEMENT_SET_NO":999,"REV_AT_EPOCH":69277,"BSTAR":7.1797441e-5,"MEAN_MOTION_DOT":1.44e-6,"MEAN_MOTION_DDOT":0},{"OBJECT_NAME":"COSMOS 1867 COOLANT","OBJECT_ID":"1987-060AF","EPOCH":"2026-03-08T01:12:04.613760","MEAN_MOTION":14.33943096,"ECCENTRICITY":0.00155188,"INCLINATION":65.0092,"RA_OF_ASC_NODE":292.576,"ARG_OF_PERICENTER":281.0524,"MEAN_ANOMALY":78.8816,"EPHEMERIS_TYPE":0,"CLASSIFICATION_TYPE":"U","NORAD_CAT_ID":39668,"ELEMENT_SET_NO":999,"REV_AT_EPOCH":62215,"BSTAR":0.00017002867,"MEAN_MOTION_DOT":3.75e-6,"MEAN_MOTION_DDOT":0}]
